HST                     
1 20580U 90037B   26068.15977042  .00009063  00000+0  30023-3 0  9999
2 20580  28.4717  43.6133 0001837 120.9992 239.0785 15.29473555773239
STARLINK-30594          
1 58097U 23161A   26068.50397397 -.00000549  00000+0 -64273-5 0  9993
2 58097  53.1610 166.3650 0000833  94.5431 265.5665 15.30188273134397
